[{"OBJECT_NAME":"STARLINK-30975","OBJECT_ID":"2023-183K","EPOCH":"2026-03-09T06:26:49.966368","MEAN_MOTION":15.26744851,"ECCENTRICITY":0.00016427,"INCLINATION":43.0011,"RA_OF_ASC_NODE":43.6658,"ARG_OF_PERICENTER":270.5537,"MEAN_ANOMALY":89.5126,"EPHEMERIS_TYPE":0,"CLASSIFICATION_TYPE":"U","NORAD_CAT_ID":58446,"ELEMENT_SET_NO":999,"REV_AT_EPOCH":12669,"BSTAR":2.3887429e-5,"MEAN_MOTION_DOT":3.81e-6,"MEAN_MOTION_DDOT":0},{"OBJECT_NAME":"CZ-6A DEB","OBJECT_ID":"2024-140JQ","EPOCH":"2026-03-09T16:05:49.477056","MEAN_MOTION":15.15394204,"ECCENTRICITY":0.00800164,"INCLINATION":89.0638,"RA_OF_ASC_NODE":284.0631,"ARG_OF_PERICENTER":105.771,"MEAN_ANOMALY":255.2376,"EPHEMERIS_TYPE":0,"CLASSIFICATION_TYPE":"U","NORAD_CAT_ID":60861,"ELEMENT_SET_NO":999,"REV_AT_EPOCH":8511,"BSTAR":0.0025246282,"MEAN_MOTION_DOT":0.00051962,"MEAN_MOTION_DDOT":0}]
